JILIN-1 GAOFEN 3A       
1 44312U 19032C   26194.28207272  .00005734  00000+0  18497-3 0  9991
2 44312  44.9726 213.2598 0004711  89.9980 270.1445 15.33165911391847
JILIN-1 GAOFEN 2A       
1 44777U 19075A   26194.26178434  .00008487  00000+0  21493-3 0  9996
2 44777  97.4968 278.6724 0005364   2.5239 357.6032 15.39980911368895
JILIN-1 GAOFEN 2B       
1 44836U 19086A   26194.26768114  .00003517  00000+0  16156-3 0  9993
2 44836  97.4877 266.0981 0013076 222.9346 137.0869 15.20986542364454
JILIN-1 GAOFEN 3E       
1 46457U 20065D   26194.30445918  .00050839  00000+0  47578-3 0  9993
2 46457  97.2216 247.5759 0010571  78.4074 281.8373 15.67034486323844
JILIN-1 GAOFEN 3F       
1 46458U 20065E   26194.31510481  .00043780  00000+0  46633-3 0  9991
2 46458  97.2175 244.7880 0011859  64.4981 295.7503 15.63785304323785
JILIN-1 GAOFEN 3G       
1 46459U 20065F   26194.28013702  .00085992  00000+0  53728-3 0  9996
2 46459  97.2237 252.0359 0005163 283.7429  76.3262 15.76597910324045
JILIN-1 GAOFEN 3H       
1 46460U 20065G   26194.31801193  .00067383  00000+0  51359-3 0  9993
2 46460  97.2181 248.2249 0006137 208.4097 151.6833 15.72016319323985
JILIN-1 GAOFEN 2D       
1 49256U 21086A   26194.32236997  .00001969  00000+0  12081-3 0  9995
2 49256  97.6503 317.0289 0034201  56.9016 303.5489 15.10857334264668
JILIN-1 GAOFEN 2F       
1 49338U 21097A   26194.31430076  .00002218  00000+0  14802-3 0  9992
2 49338  97.6724 320.4557 0019679 135.8476 224.4327 15.07937929260257
JILIN-1 GAOFEN 3D27     
1 52444U 22048B   26194.26907347  .00123673  00000+0  58728-3 0  9999
2 52444  97.5730 310.7123 0005144 248.7985 111.2734 15.82574289233598
JILIN-1 GAOFEN 3D28     
1 52445U 22048C   26194.26869398  .00176612  00000+0  66126-3 0  9995
2 52445  97.5668 310.9998 0004926 246.1720 113.9035 15.87434655233654
JILIN-1 GAOFEN 3D29     
1 52446U 22048D   26194.31747609  .00123133  00000+0  57888-3 0  9997
2 52446  97.5736 311.1305 0004421 230.5169 129.5708 15.82796280233627
JILIN-1 GAOFEN 3D31     
1 52448U 22048F   26194.29545943  .00247237  25288-4  71358-3 0  9993
2 52448  97.5689 312.4242 0005298 241.3161 118.7581 15.93019692233722
JILIN-1 GAOFEN 03D09    
1 53445U 22098B   26194.30834498  .00049617  00000+0  41195-3 0  9992
2 53445  97.5624 326.0098 0003391 238.1922 121.9010 15.70045884218723
JILIN-1 GAOFEN 03D43    
1 53448U 22098E   26194.28881317  .00065964  00000+0  46762-3 0  9992
2 53448  97.5610 327.1382 0003638 232.7514 127.3419 15.73749789218798
JILIN-1 GAOFEN 03D08    
1 54251U 22155A   26194.29995272  .00042708  00000+0  39570-3 0  9996
2 54251  97.6225 341.8464 0004168 234.4231 125.6641 15.67382719203906
