{"fetched_at":"2026-07-13T18:17:02.296Z","source":"https://celestrak.org/NORAD/elements/gp.php?NAME=JILIN&FORMAT=JSON","constellation":"jilin-1-gaofen","records":[{"OBJECT_NAME":"JILIN-1 GAOFEN 3A","OBJECT_ID":"2019-032C","EPOCH":"2026-07-13T06:46:11.083008","CLASSIFICATION_TYPE":"U","MEAN_MOTION":15.33165911,"ECCENTRICITY":0.00047118,"INCLINATION":44.9726,"RA_OF_ASC_NODE":213.2598,"ARG_OF_PERICENTER":89.998,"MEAN_ANOMALY":270.1445,"EPHEMERIS_TYPE":0,"NORAD_CAT_ID":44312,"ELEMENT_SET_NO":999,"REV_AT_EPOCH":39184,"BSTAR":0.00018496997,"MEAN_MOTION_DOT":0.00005734,"MEAN_MOTION_DDOT":0},{"OBJECT_NAME":"JILIN-1 GAOFEN 2A","OBJECT_ID":"2019-075A","EPOCH":"2026-07-13T06:16:58.166976","CLASSIFICATION_TYPE":"U","MEAN_MOTION":15.39980911,"ECCENTRICITY":0.00053649,"INCLINATION":97.4968,"RA_OF_ASC_NODE":278.6724,"ARG_OF_PERICENTER":2.5239,"MEAN_ANOMALY":357.6032,"EPHEMERIS_TYPE":0,"NORAD_CAT_ID":44777,"ELEMENT_SET_NO":999,"REV_AT_EPOCH":36889,"BSTAR":0.00021492926,"MEAN_MOTION_DOT":0.00008487,"MEAN_MOTION_DDOT":0},{"OBJECT_NAME":"JILIN-1 GAOFEN 2B","OBJECT_ID":"2019-086A","EPOCH":"2026-07-13T06:25:27.650496","CLASSIFICATION_TYPE":"U","MEAN_MOTION":15.20986542,"ECCENTRICITY":0.00130762,"INCLINATION":97.4877,"RA_OF_ASC_NODE":266.0981,"ARG_OF_PERICENTER":222.9346,"MEAN_ANOMALY":137.0869,"EPHEMERIS_TYPE":0,"NORAD_CAT_ID":44836,"ELEMENT_SET_NO":999,"REV_AT_EPOCH":36445,"BSTAR":0.00016156058,"MEAN_MOTION_DOT":0.00003517,"MEAN_MOTION_DDOT":0},{"OBJECT_NAME":"JILIN-1 GAOFEN 3E","OBJECT_ID":"2020-065D","EPOCH":"2026-07-13T07:18:25.273152","CLASSIFICATION_TYPE":"U","MEAN_MOTION":15.67034486,"ECCENTRICITY":0.00105711,"INCLINATION":97.2216,"RA_OF_ASC_NODE":247.5759,"ARG_OF_PERICENTER":78.4074,"MEAN_ANOMALY":281.8373,"EPHEMERIS_TYPE":0,"NORAD_CAT_ID":46457,"ELEMENT_SET_NO":999,"REV_AT_EPOCH":32384,"BSTAR":0.00047577752,"MEAN_MOTION_DOT":0.00050839,"MEAN_MOTION_DDOT":0},{"OBJECT_NAME":"JILIN-1 GAOFEN 3F","OBJECT_ID":"2020-065E","EPOCH":"2026-07-13T07:33:45.055584","CLASSIFICATION_TYPE":"U","MEAN_MOTION":15.63785304,"ECCENTRICITY":0.00118593,"INCLINATION":97.2175,"RA_OF_ASC_NODE":244.788,"ARG_OF_PERICENTER":64.4981,"MEAN_ANOMALY":295.7503,"EPHEMERIS_TYPE":0,"NORAD_CAT_ID":46458,"ELEMENT_SET_NO":999,"REV_AT_EPOCH":32378,"BSTAR":0.000466333,"MEAN_MOTION_DOT":0.0004378,"MEAN_MOTION_DDOT":0},{"OBJECT_NAME":"JILIN-1 GAOFEN 3G","OBJECT_ID":"2020-065F","EPOCH":"2026-07-13T06:43:23.838528","CLASSIFICATION_TYPE":"U","MEAN_MOTION":15.7659791,"ECCENTRICITY":0.00051636,"INCLINATION":97.2237,"RA_OF_ASC_NODE":252.0359,"ARG_OF_PERICENTER":283.7429,"MEAN_ANOMALY":76.3262,"EPHEMERIS_TYPE":0,"NORAD_CAT_ID":46459,"ELEMENT_SET_NO":999,"REV_AT_EPOCH":32404,"BSTAR":0.00053727804,"MEAN_MOTION_DOT":0.00085992,"MEAN_MOTION_DDOT":0},{"OBJECT_NAME":"JILIN-1 GAOFEN 3H","OBJECT_ID":"2020-065G","EPOCH":"2026-07-13T07:37:56.230752","CLASSIFICATION_TYPE":"U","MEAN_MOTION":15.72016319,"ECCENTRICITY":0.00061374,"INCLINATION":97.2181,"RA_OF_ASC_NODE":248.2249,"ARG_OF_PERICENTER":208.4097,"MEAN_ANOMALY":151.6833,"EPHEMERIS_TYPE":0,"NORAD_CAT_ID":46460,"ELEMENT_SET_NO":999,"REV_AT_EPOCH":32398,"BSTAR":0.00051358673,"MEAN_MOTION_DOT":0.00067383,"MEAN_MOTION_DDOT":0},{"OBJECT_NAME":"JILIN-1 GAOFEN 2D","OBJECT_ID":"2021-086A","EPOCH":"2026-07-13T07:44:12.765408","CLASSIFICATION_TYPE":"U","MEAN_MOTION":15.10857334,"ECCENTRICITY":0.00342012,"INCLINATION":97.6503,"RA_OF_ASC_NODE":317.0289,"ARG_OF_PERICENTER":56.9016,"MEAN_ANOMALY":303.5489,"EPHEMERIS_TYPE":0,"NORAD_CAT_ID":49256,"ELEMENT_SET_NO":999,"REV_AT_EPOCH":26466,"BSTAR":0.00012081185,"MEAN_MOTION_DOT":0.00001969,"MEAN_MOTION_DDOT":0},{"OBJECT_NAME":"JILIN-1 GAOFEN 2F","OBJECT_ID":"2021-097A","EPOCH":"2026-07-13T07:32:35.585664","CLASSIFICATION_TYPE":"U","MEAN_MOTION":15.07937929,"ECCENTRICITY":0.00196794,"INCLINATION":97.6724,"RA_OF_ASC_NODE":320.4557,"ARG_OF_PERICENTER":135.8476,"MEAN_ANOMALY":224.4327,"EPHEMERIS_TYPE":0,"NORAD_CAT_ID":49338,"ELEMENT_SET_NO":999,"REV_AT_EPOCH":26025,"BSTAR":0.00014802364,"MEAN_MOTION_DOT":0.00002218,"MEAN_MOTION_DDOT":0},{"OBJECT_NAME":"JILIN-1 GAOFEN 3D27","OBJECT_ID":"2022-048B","EPOCH":"2026-07-13T06:27:27.947808","CLASSIFICATION_TYPE":"U","MEAN_MOTION":15.82574289,"ECCENTRICITY":0.0005144,"INCLINATION":97.573,"RA_OF_ASC_NODE":310.7123,"ARG_OF_PERICENTER":248.7985,"MEAN_ANOMALY":111.2734,"EPHEMERIS_TYPE":0,"NORAD_CAT_ID":52444,"ELEMENT_SET_NO":999,"REV_AT_EPOCH":23359,"BSTAR":0.00058728097,"MEAN_MOTION_DOT":0.00123673,"MEAN_MOTION_DDOT":0},{"OBJECT_NAME":"JILIN-1 GAOFEN 3D28","OBJECT_ID":"2022-048C","EPOCH":"2026-07-13T06:26:55.159872","CLASSIFICATION_TYPE":"U","MEAN_MOTION":15.87434655,"ECCENTRICITY":0.00049263,"INCLINATION":97.5668,"RA_OF_ASC_NODE":310.9998,"ARG_OF_PERICENTER":246.172,"MEAN_ANOMALY":113.9035,"EPHEMERIS_TYPE":0,"NORAD_CAT_ID":52445,"ELEMENT_SET_NO":999,"REV_AT_EPOCH":23365,"BSTAR":0.00066125533,"MEAN_MOTION_DOT":0.00176612,"MEAN_MOTION_DDOT":0},{"OBJECT_NAME":"JILIN-1 GAOFEN 3D29","OBJECT_ID":"2022-048D","EPOCH":"2026-07-13T07:37:09.934176","CLASSIFICATION_TYPE":"U","MEAN_MOTION":15.8279628,"ECCENTRICITY":0.00044213,"INCLINATION":97.5736,"RA_OF_ASC_NODE":311.1305,"ARG_OF_PERICENTER":230.5169,"MEAN_ANOMALY":129.5708,"EPHEMERIS_TYPE":0,"NORAD_CAT_ID":52446,"ELEMENT_SET_NO":999,"REV_AT_EPOCH":23362,"BSTAR":0.00057888216,"MEAN_MOTION_DOT":0.00123133,"MEAN_MOTION_DDOT":0},{"OBJECT_NAME":"JILIN-1 GAOFEN 3D31","OBJECT_ID":"2022-048F","EPOCH":"2026-07-13T07:05:27.694752","CLASSIFICATION_TYPE":"U","MEAN_MOTION":15.93019692,"ECCENTRICITY":0.00052989,"INCLINATION":97.5689,"RA_OF_ASC_NODE":312.4242,"ARG_OF_PERICENTER":241.3161,"MEAN_ANOMALY":118.7581,"EPHEMERIS_TYPE":0,"NORAD_CAT_ID":52448,"ELEMENT_SET_NO":999,"REV_AT_EPOCH":23372,"BSTAR":0.0007135838,"MEAN_MOTION_DOT":0.00247237,"MEAN_MOTION_DDOT":0.00002528785},{"OBJECT_NAME":"JILIN-1 GAOFEN 03D09","OBJECT_ID":"2022-098B","EPOCH":"2026-07-13T07:24:01.006272","CLASSIFICATION_TYPE":"U","MEAN_MOTION":15.70045884,"ECCENTRICITY":0.00033915,"INCLINATION":97.5624,"RA_OF_ASC_NODE":326.0098,"ARG_OF_PERICENTER":238.1922,"MEAN_ANOMALY":121.901,"EPHEMERIS_TYPE":0,"NORAD_CAT_ID":53445,"ELEMENT_SET_NO":999,"REV_AT_EPOCH":21872,"BSTAR":0.00041194817,"MEAN_MOTION_DOT":0.00049617,"MEAN_MOTION_DDOT":0},{"OBJECT_NAME":"JILIN-1 GAOFEN 03D43","OBJECT_ID":"2022-098E","EPOCH":"2026-07-13T06:55:53.457888","CLASSIFICATION_TYPE":"U","MEAN_MOTION":15.73749789,"ECCENTRICITY":0.00036381,"INCLINATION":97.561,"RA_OF_ASC_NODE":327.1382,"ARG_OF_PERICENTER":232.7514,"MEAN_ANOMALY":127.3419,"EPHEMERIS_TYPE":0,"NORAD_CAT_ID":53448,"ELEMENT_SET_NO":999,"REV_AT_EPOCH":21879,"BSTAR":0.00046762321,"MEAN_MOTION_DOT":0.00065964,"MEAN_MOTION_DDOT":0},{"OBJECT_NAME":"JILIN-1 GAOFEN 03D08","OBJECT_ID":"2022-155A","EPOCH":"2026-07-13T07:11:55.915008","CLASSIFICATION_TYPE":"U","MEAN_MOTION":15.67382719,"ECCENTRICITY":0.00041688,"INCLINATION":97.6225,"RA_OF_ASC_NODE":341.8464,"ARG_OF_PERICENTER":234.4231,"MEAN_ANOMALY":125.6641,"EPHEMERIS_TYPE":0,"NORAD_CAT_ID":54251,"ELEMENT_SET_NO":999,"REV_AT_EPOCH":20390,"BSTAR":0.00039569934,"MEAN_MOTION_DOT":0.00042708,"MEAN_MOTION_DDOT":0}]}
